OBJECT_NAME,OBJECT_ID,EPOCH,MEAN_MOTION,ECCENTRICITY,INCLINATION,RA_OF_ASC_NODE,ARG_OF_PERICENTER,MEAN_ANOMALY,EPHEMERIS_TYPE,CLASSIFICATION_TYPE,NORAD_CAT_ID,ELEMENT_SET_NO,REV_AT_EPOCH,BSTAR,MEAN_MOTION_DOT,MEAN_MOTION_DDOT
FENGYUN 3D,2017-072A,2026-06-12T20:21:41.510304,14.19738080,.0002606,99.0118,138.1919,69.2741,290.8713,0,U,43010,999,44437,.13556E-4,-.18E-6,0
NOAA 20 (JPSS-1),2017-073A,2026-06-12T20:13:23.810880,14.19511061,.0000311,98.7772,103.3438,63.0957,297.0251,0,U,43013,999,44385,.4434E-4,.49E-6,0
GOES 17,2018-022A,2026-06-12T05:55:50.419776,1.00270638,.00004559,0.9240,85.7987,26.2240,148.0277,0,U,43226,999,3037,0,-.167E-5,0
SENTINEL-3B,2018-039A,2026-06-12T18:30:59.116320,14.26733871,.0000743,98.6250,231.3669,81.1909,278.9356,0,U,43437,999,42349,.61575E-4,.105E-5,0
FENGYUN 2H,2018-050A,2026-06-12T20:25:16.992768,1.00270195,.0001869,3.0186,79.1293,133.3177,74.4816,0,U,43491,999,2939,0,-.118E-5,0
METOP-C,2018-087A,2026-06-12T18:35:09.367872,14.21510984,.0001611,98.6645,223.4585,134.2821,225.8489,0,U,43689,999,39420,.62427E-4,.93E-6,0
GEO-KOMPSAT-2A,2018-100A,2026-06-12T06:57:53.220384,1.00273027,.00018524,0.0548,131.2791,314.0824,47.9925,0,U,43823,999,2758,0,-.328E-5,0
METEOR-M2 2,2019-038A,2026-06-12T21:20:45.011040,14.24363912,.0002181,98.9139,151.1109,54.8911,305.2471,0,U,44387,999,36068,-.60749E-4,-.186E-5,0
ARKTIKA-M 1,2021-016A,2026-06-09T12:22:37.726752,2.00625436,.7285674,63.2417,58.7595,269.8905,14.6803,0,U,47719,999,3863,0,-.149E-5,0
FENGYUN 3E,2021-062A,2026-06-12T21:40:37.609248,14.19904097,.0002795,98.7493,167.3584,92.3223,267.8273,0,U,49008,999,25597,.29562E-4,.19E-6,0
GOES 18,2022-021A,2026-06-12T15:58:08.547744,1.00271838,.0000451,0.0460,146.1904,20.2436,197.0919,0,U,51850,999,654,0,.111E-5,0
NOAA 21 (JPSS-2),2022-150A,2026-06-12T19:19:30.392832,14.19564785,.0001412,98.7061,102.6680,163.8703,196.2519,0,U,54234,999,18592,.41365E-4,.44E-6,0
METEOSAT-12 (MTG-I1),2022-170C,2026-06-12T06:21:11.178144,1.00271774,.00032069,0.7326,22.0862,72.1781,261.2060,0,U,54743,999,1292,0,.7E-7,0
TIANMU-1 03,2023-039A,2026-06-12T20:18:46.389600,15.47166473,.0004269,97.5224,337.6466,109.9791,250.1919,0,U,55973,999,18016,.31779E-3,.16057E-3,0
TIANMU-1 04,2023-039B,2026-06-12T20:06:01.588896,15.47761406,.0004824,97.5162,336.7907,107.0495,253.1284,0,U,55974,999,18017,.32601E-3,.16822E-3,0
TIANMU-1 05,2023-039C,2026-06-12T19:50:46.637952,15.47093105,.0003845,97.5206,337.2429,124.6477,235.5136,0,U,55975,999,18014,.32458E-3,.1636E-3,0
TIANMU-1 06,2023-039D,2026-06-12T20:10:30.368928,15.47666857,.0004243,97.5215,337.8884,121.6005,238.5659,0,U,55976,999,18017,.32202E-3,.16558E-3,0
FENGYUN 3G,2023-055A,2026-06-12T20:36:24.666912,15.52440872,.0006866,49.9937,8.3234,278.7492,81.2697,0,U,56232,999,17933,.40286E-3,.24754E-3,0
METEOR-M2 3,2023-091A,2026-06-12T21:11:08.134656,14.24046396,.0004118,98.6090,218.9490,166.5688,193.5601,0,U,57166,999,15390,.17414E-4,-.3E-7,0
TIANMU-1 07,2023-101A,2026-06-12T20:21:43.517376,15.29759402,.0003856,97.2599,214.6163,130.3431,229.8147,0,U,57399,999,16098,.22779E-3,.6493E-4,0
TIANMU-1 08,2023-101B,2026-06-12T21:07:54.036192,15.29764914,.0005429,97.2587,214.4188,125.3715,234.8034,0,U,57400,999,16098,.24101E-3,.6877E-4,0
TIANMU-1 09,2023-101C,2026-06-12T20:44:08.384352,15.29794104,.0004286,97.2546,213.8207,136.5357,223.6222,0,U,57401,999,16098,.23416E-3,.6685E-4,0
TIANMU-1 10,2023-101D,2026-06-12T19:57:25.532928,15.29764604,.0005909,97.2626,214.8349,137.4555,222.7144,0,U,57402,999,16097,.24571E-3,.7013E-4,0
FENGYUN 3F,2023-111A,2026-06-12T19:36:08.534880,14.19938387,.0001597,98.6836,233.9067,96.2218,263.9140,0,U,57490,999,14824,.38412E-4,.38E-6,0
ARKTIKA-M 2,2023-198A,2026-06-09T18:48:45.592992,2.00606537,.69004015,63.2205,155.1874,267.4353,18.7899,0,U,58584,999,1817,0,.212E-5,0
TIANMU-1 11,2023-205A,2026-06-12T20:37:42.170304,15.26953066,.0009475,97.3446,185.4842,31.4570,328.7234,0,U,58645,999,13686,.2271E-3,.5944E-4,0
TIANMU-1 12,2023-205B,2026-06-12T19:54:52.733664,15.26915975,.0007282,97.3436,185.2115,18.7056,341.4450,0,U,58646,999,13684,.22858E-3,.5973E-4,0
TIANMU-1 13,2023-205C,2026-06-12T20:40:37.202016,15.26770454,.0006422,97.3463,185.5146,358.3224,1.7992,0,U,58647,999,13684,.23524E-3,.6121E-4,0
TIANMU-1 14,2023-205D,2026-06-12T20:19:29.936064,15.26814988,.0007413,97.3399,184.6854,1.8937,358.2328,0,U,58648,999,13684,.22835E-3,.5949E-4,0
TIANMU-1 19,2023-208A,2026-06-12T20:15:34.205760,15.31511636,.0004144,97.4498,280.1218,347.4642,12.6496,0,U,58660,999,13666,.27963E-3,.8434E-4,0
TIANMU-1 20,2023-208B,2026-06-12T21:14:51.228096,15.32703090,.0006374,97.4441,280.7940,351.2235,8.8895,0,U,58661,999,13676,.26777E-3,.8383E-4,0
