FENGYUN 3D              
1 43010U 17072A   26163.84839711 -.00000018  00000+0  13556-4 0  9997
2 43010  99.0118 138.1919 0002606  69.2741 290.8713 14.19738080444376
NOAA 20 (JPSS-1)        
1 43013U 17073A   26163.84263670  .00000049  00000+0  44340-4 0  9994
2 43013  98.7772 103.3438 0000311  63.0957 297.0251 14.19511061443859
GOES 17                 
1 43226U 18022A   26163.24711134 -.00000167  00000+0  00000+0 0  9994
2 43226   0.9240  85.7987 0000455  26.2240 148.0277  1.00270638 30377
SENTINEL-3B             
1 43437U 18039A   26163.77151755  .00000105  00000+0  61575-4 0  9991
2 43437  98.6250 231.3669 0000743  81.1909 278.9356 14.26733871423499
FENGYUN 2H              
1 43491U 18050A   26163.85089112 -.00000118  00000+0  00000+0 0  9996
2 43491   3.0186  79.1293 0001869 133.3177  74.4816  1.00270195 29399
METOP-C                 
1 43689U 18087A   26163.77441398  .00000093  00000+0  62427-4 0  9991
2 43689  98.6645 223.4585 0001611 134.2821 225.8489 14.21510984394200
GEO-KOMPSAT-2A          
1 43823U 18100A   26163.29019931 -.00000328  00000+0  00000+0 0  9994
2 43823   0.0548 131.2791 0001852 314.0824  47.9925  1.00273027 27581
METEOR-M2 2             
1 44387U 19038A   26163.88940985 -.00000186  00000+0 -60749-4 0  9992
2 44387  98.9139 151.1109 0002181  54.8911 305.2471 14.24363912360685
ARKTIKA-M 1             
1 47719U 21016A   26160.51571443 -.00000149  00000+0  00000+0 0  9996
2 47719  63.2417  58.7595 7285674 269.8905  14.6803  2.00625436 38630
FENGYUN 3E              
1 49008U 21062A   26163.90321307  .00000019  00000+0  29562-4 0  9992
2 49008  98.7493 167.3584 0002795  92.3223 267.8273 14.19904097255978
GOES 18                 
1 51850U 22021A   26163.66537671  .00000111  00000+0  00000+0 0  9996
2 51850   0.0460 146.1904 0000451  20.2436 197.0919  1.00271838  6544
NOAA 21 (JPSS-2)        
1 54234U 22150A   26163.80521288  .00000044  00000+0  41365-4 0  9990
2 54234  98.7061 102.6680 0001412 163.8703 196.2519 14.19564785185928
METEOSAT-12 (MTG-I1)    
1 54743U 22170C   26163.26471271  .00000007  00000+0  00000+0 0  9998
2 54743   0.7326  22.0862 0003206  72.1781 261.2060  1.00271774 12920
TIANMU-1 03             
1 55973U 23039A   26163.84637025  .00016057  00000+0  31779-3 0  9997
2 55973  97.5224 337.6466 0004269 109.9791 250.1919 15.47166473180169
TIANMU-1 04             
1 55974U 23039B   26163.83751839  .00016822  00000+0  32601-3 0  9992
2 55974  97.5162 336.7907 0004824 107.0495 253.1284 15.47761406180174
TIANMU-1 05             
1 55975U 23039C   26163.82692868  .00016360  00000+0  32458-3 0  9995
2 55975  97.5206 337.2429 0003845 124.6477 235.5136 15.47093105180147
TIANMU-1 06             
1 55976U 23039D   26163.84062927  .00016558  00000+0  32202-3 0  9991
2 55976  97.5215 337.8884 0004243 121.6005 238.5659 15.47666857180172
FENGYUN 3G              
1 56232U 23055A   26163.85861883  .00024754  00000+0  40286-3 0  9992
2 56232  49.9937   8.3234 0006866 278.7492  81.2697 15.52440872179330
METEOR-M2 3             
1 57166U 23091A   26163.88273304 -.00000003  00000+0  17414-4 0  9997
2 57166  98.6090 218.9490 0004118 166.5688 193.5601 14.24046396153908
TIANMU-1 07             
1 57399U 23101A   26163.84842034  .00006493  00000+0  22779-3 0  9992
2 57399  97.2599 214.6163 0003856 130.3431 229.8147 15.29759402160987
TIANMU-1 08             
1 57400U 23101B   26163.88048653  .00006877  00000+0  24101-3 0  9991
2 57400  97.2587 214.4188 0005429 125.3715 234.8034 15.29764914160984
TIANMU-1 09             
1 57401U 23101C   26163.86398593  .00006685  00000+0  23416-3 0  9996
2 57401  97.2546 213.8207 0004286 136.5357 223.6222 15.29794104160980
TIANMU-1 10             
1 57402U 23101D   26163.83154552  .00007013  00000+0  24571-3 0  9998
2 57402  97.2626 214.8349 0005909 137.4555 222.7144 15.29764604160975
FENGYUN 3F              
1 57490U 23111A   26163.81676545  .00000038  00000+0  38412-4 0  9995
2 57490  98.6836 233.9067 0001597  96.2218 263.9140 14.19938387148244
ARKTIKA-M 2             
1 58584U 23198A   26160.78386103  .00000212  00000+0  00000+0 0  9997
2 58584  63.2205 155.1874 6900401 267.4353  18.7899  2.00606537 18179
TIANMU-1 11             
1 58645U 23205A   26163.85951586  .00005944  00000+0  22710-3 0  9991
2 58645  97.3446 185.4842 0009475  31.4570 328.7234 15.26953066136866
TIANMU-1 12             
1 58646U 23205B   26163.82977701  .00005973  00000+0  22858-3 0  9991
2 58646  97.3436 185.2115 0007282  18.7056 341.4450 15.26915975136845
TIANMU-1 13             
1 58647U 23205C   26163.86154169  .00006121  00000+0  23524-3 0  9998
2 58647  97.3463 185.5146 0006422 358.3224   1.7992 15.26770454136846
TIANMU-1 14             
1 58648U 23205D   26163.84687426  .00005949  00000+0  22835-3 0  9995
2 58648  97.3399 184.6854 0007413   1.8937 358.2328 15.26814988136847
TIANMU-1 19             
1 58660U 23208A   26163.84414590  .00008434  00000+0  27963-3 0  9991
2 58660  97.4498 280.1218 0004144 347.4642  12.6496 15.31511636136665
TIANMU-1 20             
1 58661U 23208B   26163.88531514  .00008383  00000+0  26777-3 0  9997
2 58661  97.4441 280.7940 0006374 351.2235   8.8895 15.32703090136769
